ONEWEB-0525             
1 54143U 22138AG  24065.63161679  .00000027  00000+0  34785-4 0  9998
2 54143  87.9130 110.9016 0002103  86.1417 273.9956 13.19725372 67754
ONEWEB-0526             
1 54144U 22138AH  24065.66478481 -.00000059  00000+0 -17900-3 0  9990
2 54144  87.9127 110.8921 0001920  91.9267 268.2085 13.19725681 67739
ONEWEB-0529             
1 54145U 22138AJ  24065.66794073 -.00000043  00000+0 -14064-3 0  9990
2 54145  87.9133 110.8988 0002022  84.6325 275.5038 13.19725931 67757
ONEWEB-0531             
1 54146U 22138AK  24065.52901864  .00000072  00000+0  14420-3 0  9990
2 54146  87.9128  80.3437 0001323 126.5626 233.5629 13.20772266 70136
ONEWEB-0535             
1 54147U 22138AL  24065.62529912  .00000038  00000+0  62437-4 0  9996
2 54147  87.9129 110.8986 0002008 106.1365 253.9989 13.19725202 67767
ONEWEB-0536             
1 54148U 22138AM  24065.74366303 -.00000501  00000+0 -12639-2 0  9997
2 54148  87.9126  80.3509 0001710 131.1193 229.0089 13.20775822 70150
GSLV R/B                
1 54149U 22138AN  24065.91535948  .00004016  00000+0  41211-3 0  9992
2 54149  87.3784  51.4533 0021424 288.9222  70.9683 14.90017579 74400
